{
  "type": "FeatureCollection",
  "features": [
    {
      "type": "Feature",
      "properties": {
        "norad_id": 66820,
        "name": "KOMPSAT-7",
        "group": "last-30-days",
        "lat": 0.1590544141008262,
        "lon": 110.63437970148976,
        "alt_km": 570.5100128388622,
        "timestamp": "2025-12-10T16:57:10.417257+00:00",
        "meta_object_name": "KOMPSAT-7",
        "meta_object_id": "2025-279A",
        "meta_epoch": "2025-12-10T06:32:10.558752",
        "meta_mean_motion": 14.98382112,
        "meta_eccentricity": 0.00094458,
        "meta_inclination": 97.6405,
        "meta_ra_of_asc_node": 290.188,
        "meta_arg_of_pericenter": 229.0504,
        "meta_mean_anomaly": 130.9902,
        "meta_ephemeris_type": 0,
        "meta_classification_type": "U",
        "meta_norad_cat_id": 66820,
        "meta_element_set_no": 999,
        "meta_rev_at_epoch": 128,
        "meta_bstar": 0.00033772709,
        "meta_mean_motion_dot": 3.973e-05,
        "meta_mean_motion_ddot": 0,
        "tle_line1": "1 66820U 25279A   25344.27234443  .00003973  00000+0  33773-3 0  9991",
        "tle_line2": "2 66820  97.6405 290.1880 0009445 229.0504 130.9902 14.98382112  1281"
      },
      "geometry": {
        "type": "Point",
        "coordinates": [
          110.63437970148976,
          0.1590544141008262
        ]
      }
    },
    {
      "type": "Feature",
      "properties": {
        "norad_id": 66877,
        "name": "ZQ-3 R/B",
        "group": "last-30-days",
        "lat": 56.80779788976981,
        "lon": 149.78649583464303,
        "alt_km": 1040.8553285744983,
        "timestamp": "2025-12-10T16:57:10.417271+00:00",
        "meta_object_name": "ZQ-3 R/B",
        "meta_object_id": "2025-282A",
        "meta_epoch": "2025-12-10T11:32:31.043040",
        "meta_mean_motion": 14.5297396,
        "meta_eccentricity": 0.0806176,
        "meta_inclination": 56.9526,
        "meta_ra_of_asc_node": 66.2848,
        "meta_arg_of_pericenter": 216.0467,
        "meta_mean_anomaly": 138.3546,
        "meta_ephemeris_type": 0,
        "meta_classification_type": "U",
        "meta_norad_cat_id": 66877,
        "meta_element_set_no": 999,
        "meta_rev_at_epoch": 106,
        "meta_bstar": 0.00026017,
        "meta_mean_motion_dot": 0.01253027,
        "meta_mean_motion_ddot": 7.3698e-06,
        "tle_line1": "1 66877U 25282A   25344.48091485  .01253027  73698-5  26017-3 0  9997",
        "tle_line2": "2 66877  56.9526  66.2848 0806176 216.0467 138.3546 14.52973960  1060"
      },
      "geometry": {
        "type": "Point",
        "coordinates": [
          149.78649583464303,
          56.80779788976981
        ]
      }
    },
    {
      "type": "Feature",
      "properties": {
        "norad_id": 66906,
        "name": "1998-067XS",
        "group": "last-30-days",
        "lat": -31.13522987023168,
        "lon": 1.094584566629097,
        "alt_km": 416.95143341260336,
        "timestamp": "2025-12-10T16:57:10.417281+00:00",
        "meta_object_name": "1998-067XS",
        "meta_object_id": "1998-067XS",
        "meta_epoch": "2025-12-10T00:31:58.659744",
        "meta_mean_motion": 15.50350034,
        "meta_eccentricity": 0.0003912,
        "meta_inclination": 51.6303,
        "meta_ra_of_asc_node": 155.8936,
        "meta_arg_of_pericenter": 190.7132,
        "meta_mean_anomaly": 169.3774,
        "meta_ephemeris_type": 0,
        "meta_classification_type": "U",
        "meta_norad_cat_id": 66906,
        "meta_element_set_no": 999,
        "meta_rev_at_epoch": 119,
        "meta_bstar": 0.00063423893,
        "meta_mean_motion_dot": 0.00036365,
        "meta_mean_motion_ddot": 0,
        "tle_line1": "1 66906U 98067XS  25344.02220671  .00036365  00000+0  63424-3 0  9999",
        "tle_line2": "2 66906  51.6303 155.8936 0003912 190.7132 169.3774 15.50350034  1196"
      },
      "geometry": {
        "type": "Point",
        "coordinates": [
          1.094584566629097,
          -31.13522987023168
        ]
      }
    },
    {
      "type": "Feature",
      "properties": {
        "norad_id": 66907,
        "name": "1998-067XT",
        "group": "last-30-days",
        "lat": -37.374596913976724,
        "lon": 9.72219987785389,
        "alt_km": 414.6530814249354,
        "timestamp": "2025-12-10T16:57:10.417293+00:00",
        "meta_object_name": "1998-067XT",
        "meta_object_id": "1998-067XT",
        "meta_epoch": "2025-12-09T12:07:37.114752",
        "meta_mean_motion": 15.50864429,
        "meta_eccentricity": 0.00048036,
        "meta_inclination": 51.6307,
        "meta_ra_of_asc_node": 158.4423,
        "meta_arg_of_pericenter": 208.5081,
        "meta_mean_anomaly": 151.5646,
        "meta_ephemeris_type": 0,
        "meta_classification_type": "U",
        "meta_norad_cat_id": 66907,
        "meta_element_set_no": 999,
        "meta_rev_at_epoch": 111,
        "meta_bstar": 0.0012921241,
        "meta_mean_motion_dot": 0.00076342,
        "meta_mean_motion_ddot": 0,
        "tle_line1": "1 66907U 98067XT  25343.50529068  .00076342  00000+0  12921-2 0  9998",
        "tle_line2": "2 66907  51.6307 158.4423 0004803 208.5081 151.5646 15.50864429  1113"
      },
      "geometry": {
        "type": "Point",
        "coordinates": [
          9.72219987785389,
          -37.374596913976724
        ]
      }
    },
    {
      "type": "Feature",
      "properties": {
        "norad_id": 66908,
        "name": "1998-067XU",
        "group": "last-30-days",
        "lat": -38.227082077518475,
        "lon": 11.093400363391156,
        "alt_km": 414.48397444536386,
        "timestamp": "2025-12-10T16:57:10.417302+00:00",
        "meta_object_name": "1998-067XU",
        "meta_object_id": "1998-067XU",
        "meta_epoch": "2025-12-10T11:19:03.672192",
        "meta_mean_motion": 15.51078724,
        "meta_eccentricity": 0.0004812,
        "meta_inclination": 51.6304,
        "meta_ra_of_asc_node": 153.6446,
        "meta_arg_of_pericenter": 212.6459,
        "meta_mean_anomaly": 147.4233,
        "meta_ephemeris_type": 0,
        "meta_classification_type": "U",
        "meta_norad_cat_id": 66908,
        "meta_element_set_no": 999,
        "meta_rev_at_epoch": 126,
        "meta_bstar": 0.001489,
        "meta_mean_motion_dot": 0.00088864,
        "meta_mean_motion_ddot": 0,
        "tle_line1": "1 66908U 98067XU  25344.47157028  .00088864  00000+0  14890-2 0  9998",
        "tle_line2": "2 66908  51.6304 153.6446 0004812 212.6459 147.4233 15.51078724  1266"
      },
      "geometry": {
        "type": "Point",
        "coordinates": [
          11.093400363391156,
          -38.227082077518475
        ]
      }
    },
    {
      "type": "Feature",
      "properties": {
        "norad_id": 66909,
        "name": "SILVERSAT",
        "group": "last-30-days",
        "lat": -39.0217515770149,
        "lon": 12.421251110848743,
        "alt_km": 414.2198600884576,
        "timestamp": "2025-12-10T16:57:10.417312+00:00",
        "meta_object_name": "SILVERSAT",
        "meta_object_id": "1998-067XV",
        "meta_epoch": "2025-12-09T19:50:59.696448",
        "meta_mean_motion": 15.51056405,
        "meta_eccentricity": 0.00048767,
        "meta_inclination": 51.6304,
        "meta_ra_of_asc_node": 156.8402,
        "meta_arg_of_pericenter": 210.6196,
        "meta_mean_anomaly": 149.451,
        "meta_ephemeris_type": 0,
        "meta_classification_type": "U",
        "meta_norad_cat_id": 66909,
        "meta_element_set_no": 999,
        "meta_rev_at_epoch": 116,
        "meta_bstar": 0.001540003,
        "meta_mean_motion_dot": 0.00091886,
        "meta_mean_motion_ddot": 0,
        "tle_line1": "1 66909U 98067XV  25343.82707982  .00091886  00000+0  15400-2 0  9993",
        "tle_line2": "2 66909  51.6304 156.8402 0004876 210.6196 149.4510 15.51056405  1161"
      },
      "geometry": {
        "type": "Point",
        "coordinates": [
          12.421251110848743,
          -39.0217515770149
        ]
      }
    },
    {
      "type": "Feature",
      "properties": {
        "norad_id": 66910,
        "name": "1998-067XW",
        "group": "last-30-days",
        "lat": -43.14022114711026,
        "lon": 20.40365332219887,
        "alt_km": 414.236205637264,
        "timestamp": "2025-12-10T16:57:10.417322+00:00",
        "meta_object_name": "1998-067XW",
        "meta_object_id": "1998-067XW",
        "meta_epoch": "2025-12-10T11:16:54.562944",
        "meta_mean_motion": 15.51350337,
        "meta_eccentricity": 0.0005542,
        "meta_inclination": 51.6299,
        "meta_ra_of_asc_node": 153.635,
        "meta_arg_of_pericenter": 197.1967,
        "meta_mean_anomaly": 162.8836,
        "meta_ephemeris_type": 0,
        "meta_classification_type": "U",
        "meta_norad_cat_id": 66910,
        "meta_element_set_no": 999,
        "meta_rev_at_epoch": 126,
        "meta_bstar": 0.0013818,
        "meta_mean_motion_dot": 0.00083191,
        "meta_mean_motion_ddot": 0,
        "tle_line1": "1 66910U 98067XW  25344.47007596  .00083191  00000+0  13818-2 0  9992",
        "tle_line2": "2 66910  51.6299 153.6350 0005542 197.1967 162.8836 15.51350337  1261"
      },
      "geometry": {
        "type": "Point",
        "coordinates": [
          20.40365332219887,
          -43.14022114711026
        ]
      }
    }
  ]
}